SPACEMOBILE-006         
1 67232U 25309A   26073.18753337  .00004110  00000+0  21454-3 0  9998
2 67232  52.9946  46.5954 0010302 193.8934 166.1777 15.18048843 12160
